OBJECT_NAME,OBJECT_ID,EPOCH,MEAN_MOTION,ECCENTRICITY,INCLINATION,RA_OF_ASC_NODE,ARG_OF_PERICENTER,MEAN_ANOMALY,EPHEMERIS_TYPE,CLASSIFICATION_TYPE,NORAD_CAT_ID,ELEMENT_SET_NO,REV_AT_EPOCH,BSTAR,MEAN_MOTION_DOT,MEAN_MOTION_DDOT
HAWK-5A,2022-057AB,2026-07-11T03:50:55.733856,15.52229194,.0003725,97.6616,352.5753,354.1832,5.9376,0,U,52757,999,23006,.19005E-3,.11427E-3,0
HAWK-6B,2023-011A,2026-07-11T01:13:42.441024,15.23131238,.0003524,40.4969,212.8596,219.2078,140.8477,0,U,55324,999,19148,.12257E-3,.2759E-4,0
HAWK-6C,2023-011C,2026-07-11T02:47:13.478208,15.23132905,.0004051,40.4958,209.3159,209.3679,150.6903,0,U,55326,999,19150,.12363E-3,.2785E-4,0
HAWK-6A,2023-011D,2026-07-11T02:47:16.485792,15.23131663,.0003576,40.4965,210.9429,207.0369,153.0254,0,U,55327,999,19150,.11487E-3,.2574E-4,0
HAWK-7A,2023-054P,2026-07-11T03:39:21.921120,15.27605934,.000184,97.2674,78.8807,352.8969,7.2244,0,U,56191,999,18068,.13057E-3,.3452E-4,0
HAWK-7B,2023-054R,2026-07-10T18:13:18.143328,15.27600889,.0001829,97.2701,76.7697,24.7331,335.3996,0,U,56193,999,18062,.11927E-3,.3146E-4,0
HAWK-7C,2023-054Y,2026-07-10T02:29:52.463616,15.27600583,.00014906,97.2679,76.8926,12.3347,347.7929,0,U,56200,999,18052,.15018629E-3,.398E-4,0
