HAWK-5A                 
1 52757U 22057AB  26192.16036729  .00011427  00000+0  19005-3 0  9998
2 52757  97.6616 352.5753 0003725 354.1832   5.9376 15.52229194230067
HAWK-6B                 
1 55324U 23011A   26192.05118566  .00002759  00000+0  12257-3 0  9990
2 55324  40.4969 212.8596 0003524 219.2078 140.8477 15.23131238191482
HAWK-6C                 
1 55326U 23011C   26192.11612822  .00002785  00000+0  12363-3 0  9990
2 55326  40.4958 209.3159 0004051 209.3679 150.6903 15.23132905191509
HAWK-6A                 
1 55327U 23011D   26192.11616303  .00002574  00000+0  11487-3 0  9991
2 55327  40.4965 210.9429 0003576 207.0369 153.0254 15.23131663191504
HAWK-7A                 
1 56191U 23054P   26192.15233705  .00003452  00000+0  13057-3 0  9994
2 56191  97.2674  78.8807 0001840 352.8969   7.2244 15.27605934180686
HAWK-7B                 
1 56193U 23054R   26191.75923777  .00003146  00000+0  11927-3 0  9990
2 56193  97.2701  76.7697 0001829  24.7331 335.3996 15.27600889180625
HAWK-7C                 
1 56200U 23054Y   26191.10407944  .00003980  00000+0  15019-3 0  9993
2 56200  97.2679  76.8926 0001490  12.3347 347.7929 15.27600583180521
